0 SL-16 DEB
1 27751U 92093JN  13282.55402803  .00005065  00000-0  17066-2 0  2607
2 27751 071.1724 236.5714 0052762 206.3621 153.4828 14.36678464988450
0 SL-16 DEB
1 27751U 92093JN  13287.49745886  .00004831  00000-0  16277-2 0  2621
2 27751 071.1724 225.9080 0052212 198.0856 161.8424 14.36720235989163
0 SL-16 DEB
1 27751U 92093JN  13289.16844034  .00006821  00000-0  22899-2 0  2631
2 27751 071.1730 222.3033 0052060 195.2513 164.7056 14.36740740989402
0 SL-16 DEB
1 27751U 92093JN  13291.46600672  .00005614  00000-0  18874-2 0  2643
2 27751 071.1733 217.3470 0051855 191.4119 168.5845 14.36764803989735
0 SL-16 DEB
1 27751U 92093JN  13293.83315787  .00005980  00000-0  20084-2 0  2659
2 27751 071.1730 212.2407 0051606 187.2018 172.8383 14.36787124990076
